0 FENGYUN 1C DEB
1 30803U 99025AUM 13282.12042834  .00001018  00000-0  74224-3 0  9104
2 30803 099.0435 225.7401 0114010 213.6326 269.9253 13.95376438337151
0 FENGYUN 1C DEB
1 30803U 99025AUM 13283.12432472  .00001077  00000-0  78331-3 0  9115
2 30803 099.0437 226.7251 0114003 210.8248 272.9154 13.95377904337299
0 FENGYUN 1C DEB
1 30803U 99025AUM 13285.42010154  .00001271  00000-0  91878-3 0  9138
2 30803 099.0443 228.9775 0113996 204.4078 285.5798 13.95381804337615
0 FENGYUN 1C DEB
1 30803U 99025AUM 13287.84473722  .00001556  00000-0  11181-2 0  9145
2 30803 099.0449 231.3563 0114019 197.6523 225.5683 13.95388017337956
0 FENGYUN 1C DEB
1 30803U 99025AUM 13288.84882072  .00001595  00000-0  11453-2 0  9154
2 30803 099.0452 232.3414 0114047 194.8954 229.4898 13.95392023338093
0 FENGYUN 1C DEB
1 30803U 99025AUM 13290.78392344  .00001394  00000-0  10044-2 0  9161
2 30803 099.0456 234.2402 0114112 189.5285 230.3851 13.95399998338364
0 FENGYUN 1C DEB
1 30803U 99025AUM 13291.79003903  .00001287  00000-0  92929-3 0  9178
2 30803 099.0457 235.2276 0114156 186.7409 244.5769 13.95403031338505
0 FENGYUN 1C DEB
1 30803U 99025AUM 13292.79255075  .00001294  00000-0  93400-3 0  9182
2 30803 099.0456 236.2116 0114187 183.9491 240.6918 13.95406648338647
0 FENGYUN 1C DEB
1 30803U 99025AUM 13294.08295376  .00001163  00000-0  84239-3 0  9190
2 30803 099.0456 237.4783 0114279 180.4455 242.9528 13.95410870338828
0 FENGYUN 1C DEB
1 30803U 99025AUM 13295.80209861  .00001119  00000-0  81130-3 0  9205
2 30803 099.0453 239.1655 0114414 175.7130 239.0719 13.95415339339061
